{
  "type": "FeatureCollection",
  "features": [
    {
      "type": "Feature",
      "properties": {
        "norad_id": 31944,
        "name": "FENGYUN 1C DEB",
        "group": "fengyun-1c-debris",
        "lat": -56.532838743330274,
        "lon": -44.66046995710065,
        "alt_km": 848.8579179732624,
        "timestamp": "2025-12-27T15:27:11.475882+00:00",
        "meta_object_name": "FENGYUN 1C DEB",
        "meta_object_id": "1999-025CMV",
        "meta_epoch": "2025-12-12T04:22:40.814976",
        "meta_mean_motion": 14.11787529,
        "meta_eccentricity": 0.0151811,
        "meta_inclination": 99.2035,
        "meta_ra_of_asc_node": 133.6743,
        "meta_arg_of_pericenter": 5.8705,
        "meta_mean_anomaly": 173.5719,
        "meta_ephemeris_type": 0,
        "meta_classification_type": "U",
        "meta_norad_cat_id": 31944,
        "meta_element_set_no": 999,
        "meta_rev_at_epoch": 62902,
        "meta_bstar": 0.0007470391,
        "meta_mean_motion_dot": 1.471e-05,
        "meta_mean_motion_ddot": 0,
        "tle_line1": "1 31944U 99025CMV 25346.18241684  .00001471  00000+0  74704-3 0  9997",
        "tle_line2": "2 31944  99.2035 133.6743 0151811   5.8705 173.5719 14.11787529629027"
      },
      "geometry": {
        "type": "Point",
        "coordinates": [
          -44.66046995710065,
          -56.532838743330274
        ]
      }
    },
    {
      "type": "Feature",
      "properties": {
        "norad_id": 31945,
        "name": "FENGYUN 1C DEB",
        "group": "fengyun-1c-debris",
        "lat": -8.90492338979416,
        "lon": 79.60872588132536,
        "alt_km": 838.7011933288986,
        "timestamp": "2025-12-27T15:27:11.475894+00:00",
        "meta_object_name": "FENGYUN 1C DEB",
        "meta_object_id": "1999-025CMW",
        "meta_epoch": "2025-12-27T03:39:55.884960",
        "meta_mean_motion": 14.20894891,
        "meta_eccentricity": 0.00623891,
        "meta_inclination": 98.9608,
        "meta_ra_of_asc_node": 77.6942,
        "meta_arg_of_pericenter": 246.1509,
        "meta_mean_anomaly": 113.3121,
        "meta_ephemeris_type": 0,
        "meta_classification_type": "U",
        "meta_norad_cat_id": 31945,
        "meta_element_set_no": 999,
        "meta_rev_at_epoch": 95400,
        "meta_bstar": 0.0018636289,
        "meta_mean_motion_dot": 4.067e-05,
        "meta_mean_motion_ddot": 0,
        "tle_line1": "1 31945U 99025CMW 25361.15273015  .00004067  00000+0  18636-2 0  9990",
        "tle_line2": "2 31945  98.9608  77.6942 0062389 246.1509 113.3121 14.20894891954000"
      },
      "geometry": {
        "type": "Point",
        "coordinates": [
          79.60872588132536,
          -8.90492338979416
        ]
      }
    },
    {
      "type": "Feature",
      "properties": {
        "norad_id": 31946,
        "name": "FENGYUN 1C DEB",
        "group": "fengyun-1c-debris",
        "lat": -9.823050041052062,
        "lon": 63.41637300612502,
        "alt_km": 784.8674257683097,
        "timestamp": "2025-12-27T15:27:11.475907+00:00",
        "meta_object_name": "FENGYUN 1C DEB",
        "meta_object_id": "1999-025CMX",
        "meta_epoch": "2025-12-23T21:39:03.195648",
        "meta_mean_motion": 14.16487077,
        "meta_eccentricity": 0.0081473,
        "meta_inclination": 98.8969,
        "meta_ra_of_asc_node": 58.1228,
        "meta_arg_of_pericenter": 17.293,
        "meta_mean_anomaly": 343.099,
        "meta_ephemeris_type": 0,
        "meta_classification_type": "U",
        "meta_norad_cat_id": 31946,
        "meta_element_set_no": 999,
        "meta_rev_at_epoch": 64166,
        "meta_bstar": 0.0012861,
        "meta_mean_motion_dot": 2.6e-05,
        "meta_mean_motion_ddot": 0,
        "tle_line1": "1 31946U 99025CMX 25357.90212032  .00002600  00000+0  12861-2 0  9996",
        "tle_line2": "2 31946  98.8969  58.1228 0081473  17.2930 343.0990 14.16487077641661"
      },
      "geometry": {
        "type": "Point",
        "coordinates": [
          63.41637300612502,
          -9.823050041052062
        ]
      }
    },
    {
      "type": "Feature",
      "properties": {
        "norad_id": 31948,
        "name": "FENGYUN 1C DEB",
        "group": "fengyun-1c-debris",
        "lat": -68.39082542993857,
        "lon": 87.89386738361478,
        "alt_km": 793.4669651410095,
        "timestamp": "2025-12-27T15:27:11.475918+00:00",
        "meta_object_name": "FENGYUN 1C DEB",
        "meta_object_id": "1999-025CMZ",
        "meta_epoch": "2025-12-18T10:10:15.056832",
        "meta_mean_motion": 14.28329763,
        "meta_eccentricity": 0.00234205,
        "meta_inclination": 99.3923,
        "meta_ra_of_asc_node": 53.282,
        "meta_arg_of_pericenter": 5.6805,
        "meta_mean_anomaly": 59.9549,
        "meta_ephemeris_type": 0,
        "meta_classification_type": "U",
        "meta_norad_cat_id": 31948,
        "meta_element_set_no": 999,
        "meta_rev_at_epoch": 95109,
        "meta_bstar": 0.0011732562,
        "meta_mean_motion_dot": 2.889e-05,
        "meta_mean_motion_ddot": 0,
        "tle_line1": "1 31948U 99025CMZ 25352.42378538  .00002889  00000+0  11733-2 0  9990",
        "tle_line2": "2 31948  99.3923  53.2820 0023420   5.6805  59.9549 14.28329763951097"
      },
      "geometry": {
        "type": "Point",
        "coordinates": [
          87.89386738361478,
          -68.39082542993857
        ]
      }
    },
    {
      "type": "Feature",
      "properties": {
        "norad_id": 31949,
        "name": "FENGYUN 1C DEB",
        "group": "fengyun-1c-debris",
        "lat": -38.81879646604734,
        "lon": 159.6284565439646,
        "alt_km": 782.7926360443516,
        "timestamp": "2025-12-27T15:27:11.475930+00:00",
        "meta_object_name": "FENGYUN 1C DEB",
        "meta_object_id": "1999-025CNA",
        "meta_epoch": "2025-12-23T05:21:04.784256",
        "meta_mean_motion": 14.16925991,
        "meta_eccentricity": 0.01261914,
        "meta_inclination": 98.5469,
        "meta_ra_of_asc_node": 342.3284,
        "meta_arg_of_pericenter": 182.1147,
        "meta_mean_anomaly": 177.951,
        "meta_ephemeris_type": 0,
        "meta_classification_type": "U",
        "meta_norad_cat_id": 31949,
        "meta_element_set_no": 999,
        "meta_rev_at_epoch": 95653,
        "meta_bstar": 0.00025831817,
        "meta_mean_motion_dot": 5.19e-06,
        "meta_mean_motion_ddot": 0,
        "tle_line1": "1 31949U 99025CNA 25357.22297204  .00000519  00000+0  25832-3 0  9998",
        "tle_line2": "2 31949  98.5469 342.3284 0126191 182.1147 177.9510 14.16925991956534"
      },
      "geometry": {
        "type": "Point",
        "coordinates": [
          159.6284565439646,
          -38.81879646604734
        ]
      }
    },
    {
      "type": "Feature",
      "properties": {
        "norad_id": 31952,
        "name": "FENGYUN 1C DEB",
        "group": "fengyun-1c-debris",
        "lat": 2.848379626065065,
        "lon": -59.78529344896003,
        "alt_km": 688.342198332477,
        "timestamp": "2025-12-27T15:27:11.475941+00:00",
        "meta_object_name": "FENGYUN 1C DEB",
        "meta_object_id": "1999-025CND",
        "meta_epoch": "2025-12-26T13:50:56.872032",
        "meta_mean_motion": 14.53558379,
        "meta_eccentricity": 0.0114073,
        "meta_inclination": 98.9559,
        "meta_ra_of_asc_node": 118.6252,
        "meta_arg_of_pericenter": 250.3882,
        "meta_mean_anomaly": 108.497,
        "meta_ephemeris_type": 0,
        "meta_classification_type": "U",
        "meta_norad_cat_id": 31952,
        "meta_element_set_no": 999,
        "meta_rev_at_epoch": 97410,
        "meta_bstar": 0.00062735,
        "meta_mean_motion_dot": 2.797e-05,
        "meta_mean_motion_ddot": 0,
        "tle_line1": "1 31952U 99025CND 25360.57704713  .00002797  00000+0  62735-3 0  9995",
        "tle_line2": "2 31952  98.9559 118.6252 0114073 250.3882 108.4970 14.53558379974106"
      },
      "geometry": {
        "type": "Point",
        "coordinates": [
          -59.78529344896003,
          2.848379626065065
        ]
      }
    },
    {
      "type": "Feature",
      "properties": {
        "norad_id": 31955,
        "name": "FENGYUN 1C DEB",
        "group": "fengyun-1c-debris",
        "lat": 59.91873470124558,
        "lon": -136.06910864832707,
        "alt_km": 665.1628748021276,
        "timestamp": "2025-12-27T15:27:11.475951+00:00",
        "meta_object_name": "FENGYUN 1C DEB",
        "meta_object_id": "1999-025CNG",
        "meta_epoch": "2025-12-26T14:42:52.983936",
        "meta_mean_motion": 14.64112179,
        "meta_eccentricity": 0.0043802,
        "meta_inclination": 99.2803,
        "meta_ra_of_asc_node": 239.1674,
        "meta_arg_of_pericenter": 138.0338,
        "meta_mean_anomaly": 253.8761,
        "meta_ephemeris_type": 0,
        "meta_classification_type": "U",
        "meta_norad_cat_id": 31955,
        "meta_element_set_no": 999,
        "meta_rev_at_epoch": 96760,
        "meta_bstar": 0.0015887,
        "meta_mean_motion_dot": 8.412e-05,
        "meta_mean_motion_ddot": 0,
        "tle_line1": "1 31955U 99025CNG 25360.61311324  .00008412  00000+0  15887-2 0  9990",
        "tle_line2": "2 31955  99.2803 239.1674 0043802 138.0338 253.8761 14.64112179967607"
      },
      "geometry": {
        "type": "Point",
        "coordinates": [
          -136.06910864832707,
          59.91873470124558
        ]
      }
    }
  ]
}